{"type": "FeatureCollection", "features": [ {"type": "Feature", "properties": {"norad_id": 31955, "name": "FENGYUN 1C DEB", "group": "fengyun-1c-debris", "lat": -14.979362373741392, "lon": -126.56859484933392, "alt_km": 715.561572800164, "timestamp": "2025-12-19T06:59:44.193515+00:00", "meta": {"OBJECT_NAME": "FENGYUN 1C DEB", "OBJECT_ID": "1999-025CNG", "EPOCH": "2025-12-18T11:56:12.080256", "MEAN_MOTION": 14.63986732, "ECCENTRICITY": 0.00434448, "INCLINATION": 99.2812, "RA_OF_ASC_NODE": 230.03, "ARG_OF_PERICENTER": 163.1986, "MEAN_ANOMALY": 318.8693, "EPHEMERIS_TYPE": 0, "CLASSIFICATION_TYPE": "U", "NORAD_CAT_ID": 31955, "ELEMENT_SET_NO": 999, "REV_AT_EPOCH": 96641, "BSTAR": 0.0013577477, "MEAN_MOTION_DOT": 7.157e-05, "MEAN_MOTION_DDOT": 0}, "tle": {"line1": "1 31955U 99025CNG 25352.49736204  .00007157  00000+0  13577-2 0  9994", "line2": "2 31955  99.2812 230.0300 0043444 163.1986 318.8693 14.63986732966410"}}, "geometry": {"type": "Point", "coordinates": [-126.56859484933392, -14.979362373741392]}}, {"type": "Feature", "properties": {"norad_id": 31959, "name": "FENGYUN 1C DEB", "group": "fengyun-1c-debris", "lat": -10.921889296167643, "lon": -134.0140402457823, "alt_km": 756.100862781931, "timestamp": "2025-12-19T06:59:44.193525+00:00", "meta": {"OBJECT_NAME": "FENGYUN 1C DEB", "OBJECT_ID": "1999-025CNL", "EPOCH": "2025-12-18T09:28:12.506016", "MEAN_MOTION": 14.46847866, "ECCENTRICITY": 0.00271233, "INCLINATION": 98.5114, "RA_OF_ASC_NODE": 223.4289, "ARG_OF_PERICENTER": 137.4533, "MEAN_ANOMALY": 222.8767, "EPHEMERIS_TYPE": 0, "CLASSIFICATION_TYPE": "U", "NORAD_CAT_ID": 31959, "ELEMENT_SET_NO": 999, "REV_AT_EPOCH": 64435, "BSTAR": 0.0021054195, "MEAN_MOTION_DOT": 7.63e-05, "MEAN_MOTION_DDOT": 0}, "tle": {"line1": "1 31959U 99025CNL 25352.39458919  .00007630  00000+0  21054-2 0  9996", "line2": "2 31959  98.5114 223.4289 0027123 137.4533 222.8767 14.46847866644358"}}, "geometry": {"type": "Point", "coordinates": [-134.0140402457823, -10.921889296167643]}}, {"type": "Feature", "properties": {"norad_id": 31964, "name": "FENGYUN 1C DEB", "group": "fengyun-1c-debris", "lat": 46.48450519463621, "lon": 107.94930120625952, "alt_km": 677.5488457086094, "timestamp": "2025-12-19T06:59:44.193535+00:00", "meta": {"OBJECT_NAME": "FENGYUN 1C DEB", "OBJECT_ID": "1999-025CNR", "EPOCH": "2025-12-18T07:43:56.657856", "MEAN_MOTION": 14.58617923, "ECCENTRICITY": 0.00284532, "INCLINATION": 98.701, "RA_OF_ASC_NODE": 116.2166, "ARG_OF_PERICENTER": 12.48, "MEAN_ANOMALY": 347.7096, "EPHEMERIS_TYPE": 0, "CLASSIFICATION_TYPE": "U", "NORAD_CAT_ID": 31964, "ELEMENT_SET_NO": 999, "REV_AT_EPOCH": 67591, "BSTAR": 0.002099061, "MEAN_MOTION_DOT": 9.789e-05, "MEAN_MOTION_DDOT": 0}, "tle": {"line1": "1 31964U 99025CNR 25352.32218354  .00009789  00000+0  20991-2 0  9998", "line2": "2 31964  98.7010 116.2166 0028453  12.4800 347.7096 14.58617923675910"}}, "geometry": {"type": "Point", "coordinates": [107.94930120625952, 46.48450519463621]}}, {"type": "Feature", "properties": {"norad_id": 31966, "name": "FENGYUN 1C DEB", "group": "fengyun-1c-debris", "lat": -56.53828317426633, "lon": -47.35774981474572, "alt_km": 617.6565499317685, "timestamp": "2025-12-19T06:59:44.193545+00:00", "meta": {"OBJECT_NAME": "FENGYUN 1C DEB", "OBJECT_ID": "1999-025CNT", "EPOCH": "2025-12-17T16:16:36.229440", "MEAN_MOTION": 14.67608917, "ECCENTRICITY": 0.00860626, "INCLINATION": 99.0168, "RA_OF_ASC_NODE": 144.7692, "ARG_OF_PERICENTER": 259.558, "MEAN_ANOMALY": 99.5915, "EPHEMERIS_TYPE": 0, "CLASSIFICATION_TYPE": "U", "NORAD_CAT_ID": 31966, "ELEMENT_SET_NO": 999, "REV_AT_EPOCH": 65815, "BSTAR": 0.00097782507, "MEAN_MOTION_DOT": 5.813e-05, "MEAN_MOTION_DDOT": 0}, "tle": {"line1": "1 31966U 99025CNT 25351.67819710  .00005813  00000+0  97783-3 0  9998", "line2": "2 31966  99.0168 144.7692 0086062 259.5580  99.5915 14.67608917658151"}}, "geometry": {"type": "Point", "coordinates": [-47.35774981474572, -56.53828317426633]}}, {"type": "Feature", "properties": {"norad_id": 31972, "name": "FENGYUN 1C DEB", "group": "fengyun-1c-debris", "lat": -56.06214192909432, "lon": 49.01954005257431, "alt_km": 856.2282931531281, "timestamp": "2025-12-19T06:59:44.193555+00:00", "meta": {"OBJECT_NAME": "FENGYUN 1C DEB", "OBJECT_ID": "1999-025CNZ", "EPOCH": "2025-12-18T02:23:29.106816", "MEAN_MOTION": 14.07516384, "ECCENTRICITY": 0.00767042, "INCLINATION": 99.2111, "RA_OF_ASC_NODE": 33.8515, "ARG_OF_PERICENTER": 16.9937, "MEAN_ANOMALY": 10.8926, "EPHEMERIS_TYPE": 0, "CLASSIFICATION_TYPE": "U", "NORAD_CAT_ID": 31972, "ELEMENT_SET_NO": 999, "REV_AT_EPOCH": 95036, "BSTAR": 0.00011364745, "MEAN_MOTION_DOT": 1.5e-06, "MEAN_MOTION_DDOT": 0}, "tle": {"line1": "1 31972U 99025CNZ 25352.09964244  .00000150  00000+0  11365-3 0  9996", "line2": "2 31972  99.2111  33.8515 0076704  16.9937  10.8926 14.07516384950369"}}, "geometry": {"type": "Point", "coordinates": [49.01954005257431, -56.06214192909432]}}, {"type": "Feature", "properties": {"norad_id": 31974, "name": "FENGYUN 1C DEB", "group": "fengyun-1c-debris", "lat": -31.51593364230162, "lon": 178.98487531207323, "alt_km": 782.4997018605054, "timestamp": "2025-12-19T06:59:44.193566+00:00", "meta": {"OBJECT_NAME": "FENGYUN 1C DEB", "OBJECT_ID": "1999-025CPB", "EPOCH": "2025-12-18T11:31:23.860128", "MEAN_MOTION": 14.29591099, "ECCENTRICITY": 0.00713874, "INCLINATION": 98.3789, "RA_OF_ASC_NODE": 3.3895, "ARG_OF_PERICENTER": 285.6778, "MEAN_ANOMALY": 73.6537, "EPHEMERIS_TYPE": 0, "CLASSIFICATION_TYPE": "U", "NORAD_CAT_ID": 31974, "ELEMENT_SET_NO": 999, "REV_AT_EPOCH": 69504, "BSTAR": 0.0020701647, "MEAN_MOTION_DOT": 5.407e-05, "MEAN_MOTION_DDOT": 0}, "tle": {"line1": "1 31974U 99025CPB 25352.48013727  .00005407  00000+0  20702-2 0  9996", "line2": "2 31974  98.3789   3.3895 0071387 285.6778  73.6537 14.29591099695041"}}, "geometry": {"type": "Point", "coordinates": [178.98487531207323, -31.51593364230162]}}, {"type": "Feature", "properties": {"norad_id": 31978, "name": "FENGYUN 1C DEB", "group": "fengyun-1c-debris", "lat": 50.52337055185027, "lon": -22.268988623938416, "alt_km": 1034.9980965052382, "timestamp": "2025-12-19T06:59:44.193576+00:00", "meta": {"OBJECT_NAME": "FENGYUN 1C DEB", "OBJECT_ID": "1999-025CPF", "EPOCH": "2025-12-18T09:15:01.115712", "MEAN_MOTION": 13.63124115, "ECCENTRICITY": 0.02630419, "INCLINATION": 98.3793, "RA_OF_ASC_NODE": 146.6417, "ARG_OF_PERICENTER": 35.0311, "MEAN_ANOMALY": 326.7827, "EPHEMERIS_TYPE": 0, "CLASSIFICATION_TYPE": "U", "NORAD_CAT_ID": 31978, "ELEMENT_SET_NO": 999, "REV_AT_EPOCH": 91667, "BSTAR": 0.0010168637, "MEAN_MOTION_DOT": 9.73e-06, "MEAN_MOTION_DDOT": 0}, "tle": {"line1": "1 31978U 99025CPF 25352.38542958  .00000973  00000+0  10169-2 0  9991", "line2": "2 31978  98.3793 146.6417 0263041  35.0311 326.7827 13.63124115916678"}}, "geometry": {"type": "Point", "coordinates": [-22.268988623938416, 50.52337055185027]}}, {"type": "Feature", "properties": {"norad_id": 31979, "name": "FENGYUN 1C DEB", "group": "fengyun-1c-debris", "lat": -4.708177451776991, "lon": -95.05396688349747, "alt_km": 963.7068706670971, "timestamp": "2025-12-19T06:59:44.193586+00:00", "meta": {"OBJECT_NAME": "FENGYUN 1C DEB", "OBJECT_ID": "1999-025CPG", "EPOCH": "2025-12-18T02:00:34.037856", "MEAN_MOTION": 13.6932555, "ECCENTRICITY": 0.02673615, "INCLINATION": 99.377, "RA_OF_ASC_NODE": 84.5492, "ARG_OF_PERICENTER": 267.099, "MEAN_ANOMALY": 89.9533, "EPHEMERIS_TYPE": 0, "CLASSIFICATION_TYPE": "U", "NORAD_CAT_ID": 31979, "ELEMENT_SET_NO": 999, "REV_AT_EPOCH": 57985, "BSTAR": 0.0027907291, "MEAN_MOTION_DOT": 3.07e-05, "MEAN_MOTION_DDOT": 0}, "tle": {"line1": "1 31979U 99025CPG 25352.08372729  .00003070  00000+0  27907-2 0  9995", "line2": "2 31979  99.3770  84.5492 0267361 267.0990  89.9533 13.69325550579856"}}, "geometry": {"type": "Point", "coordinates": [-95.05396688349747, -4.708177451776991]}}, {"type": "Feature", "properties": {"norad_id": 31980, "name": "FENGYUN 1C DEB", "group": "fengyun-1c-debris", "lat": 69.22935446686301, "lon": 56.25538462259367, "alt_km": 838.954581115273, "timestamp": "2025-12-19T06:59:44.193596+00:00", "meta": {"OBJECT_NAME": "FENGYUN 1C DEB", "OBJECT_ID": "1999-025CPH", "EPOCH": "2025-12-16T11:57:41.696928", "MEAN_MOTION": 13.32153551, "ECCENTRICITY": 0.04281038, "INCLINATION": 97.6145, "RA_OF_ASC_NODE": 74.8269, "ARG_OF_PERICENTER": 103.3204, "MEAN_ANOMALY": 261.6022, "EPHEMERIS_TYPE": 0, "CLASSIFICATION_TYPE": "U", "NORAD_CAT_ID": 31980, "ELEMENT_SET_NO": 999, "REV_AT_EPOCH": 89720, "BSTAR": 0.00040322723, "MEAN_MOTION_DOT": 3.01e-06, "MEAN_MOTION_DDOT": 0}, "tle": {"line1": "1 31980U 99025CPH 25350.49839927  .00000301  00000+0  40323-3 0  9990", "line2": "2 31980  97.6145  74.8269 0428103 103.3204 261.6022 13.32153551897206"}}, "geometry": {"type": "Point", "coordinates": [56.25538462259367, 69.22935446686301]}}, {"type": "Feature", "properties": {"norad_id": 31984, "name": "FENGYUN 1C DEB", "group": "fengyun-1c-debris", "lat": 43.740979893285214, "lon": -10.841723316008334, "alt_km": 854.9517761088719, "timestamp": "2025-12-19T06:59:44.193606+00:00", "meta": {"OBJECT_NAME": "FENGYUN 1C DEB", "OBJECT_ID": "1999-025CPM", "EPOCH": "2025-12-18T07:09:32.915232", "MEAN_MOTION": 14.22968839, "ECCENTRICITY": 0.00628019, "INCLINATION": 98.5578, "RA_OF_ASC_NODE": 356.4784, "ARG_OF_PERICENTER": 210.9858, "MEAN_ANOMALY": 148.7609, "EPHEMERIS_TYPE": 0, "CLASSIFICATION_TYPE": "U", "NORAD_CAT_ID": 31984, "ELEMENT_SET_NO": 999, "REV_AT_EPOCH": 94452, "BSTAR": 0.00030022048, "MEAN_MOTION_DOT": 6.47e-06, "MEAN_MOTION_DDOT": 0}, "tle": {"line1": "1 31984U 99025CPM 25352.29829763  .00000647  00000+0  30022-3 0  9999", "line2": "2 31984  98.5578 356.4784 0062801 210.9858 148.7609 14.22968839944527"}}, "geometry": {"type": "Point", "coordinates": [-10.841723316008334, 43.740979893285214]}}]}